EUTELSAT 21B            
1 38992U 12062B   26017.21780698  .00000146  00000+0  00000+0 0  9998
2 38992   0.0653 358.0490 0003011 296.2762 282.3186  1.00269005 48314
EUTELSAT 70B            
1 39020U 12069A   26017.09857457 -.00000026  00000+0  00000+0 0  9990
2 39020   0.0645 343.8624 0003711 286.7903 311.8369  1.00271985 47991
EUTELSAT 117 WEST A     
1 39122U 13012A   26017.27547434  .00000004  00000+0  00000+0 0  9998
2 39122   0.0188 330.0064 0002777 336.2390 152.8047  1.00272231 46927
EUTELSAT 7B             
1 39163U 13022A   26017.23128171  .00000064  00000+0  00000+0 0  9999
2 39163   0.0678 346.7985 0005324 345.7972 234.3074  1.00270839 46438
EXPRESS-AT1             
1 39612U 14010A   26017.16704166  .00000095  00000+0  00000+0 0  9996
2 39612   0.0141 327.3882 0000270 241.6520  23.6758  1.00272007 43301
EXPRESS-AT2             
1 39613U 14010B   26017.39767510 -.00000264  00000+0  00000+0 0  9993
2 39613   0.0156   5.2434 0001160 262.8329 131.7377  1.00278461 42985
EUTELSAT 3B             
1 39773U 14030A   26017.23169838  .00000036  00000+0  00000+0 0  9990
2 39773   0.0604   6.5882 0003155 238.2803 318.2777  1.00272052 42550
EUTELSAT 115 WEST B     
1 40425U 15010B   26016.73824208 -.00000008  00000+0  00000+0 0  9998
2 40425   0.0150 142.1887 0000197 199.1897 285.6480  1.00271186 39871
